$$SOE
2460147.500000000, A.D. 2023-Jul-22 00:00:00.0000, 9.580385999606946E+07, -4.630246582569072E+08, 2.709340481890890E+07,
2460154.500000000, A.D. 2023-Jul-29 00:00:00.0000, 1.051703234020338E+08, -4.597078470247186E+08, 2.509569840497833E+07,
2460161.500000000, A.D. 2023-Aug-05 00:00:00.0000, 1.144882578090205E+08, -4.561791465504535E+08, 2.308642656629944E+07,
2460168.500000000, A.D. 2023-Aug-12 00:00:00.0000, 1.237529078855864E+08, -4.524383589705591E+08, 2.106642323933971E+07,
2460175.500000000, A.D. 2023-Aug-19 00:00:00.0000, 1.329594621857006E+08, -4.484853897464222E+08, 1.903654229100963E+07,
2460182.500000000, A.D. 2023-Aug-26 00:00:00.0000, 1.421030546614909E+08, -4.443202512048867E+08, 1.699765760030591E+07,
2460189.500000000, A.D. 2023-Sep-02 00:00:00.0000, 1.511787663253330E+08, -4.399430662024541E+08, 1.495066310987705E+07,
2460196.500000000, A.D. 2023-Sep-09 00:00:00.0000, 1.601816271050556E+08, -4.353540719489702E+08, 1.289647283884007E+07,
2460203.500000000, A.D. 2023-Sep-16 00:00:00.0000, 1.691066180681913E+08, -4.305536240423849E+08, 1.083602083464640E+07,
2460210.500000000, A.D. 2023-Sep-23 00:00:00.0000, 1.779486744393693E+08, -4.255422004209703E+08, 8.770261047248602E+06,
2460217.500000000, A.D. 2023-Sep-30 00:00:00.0000, 1.867026890786078E+08, -4.203204040349347E+08, 6.700167252025664E+06,
2460224.500000000, A.D. 2023-Oct-07 00:00:00.0000, 1.953635140733980E+08, -4.148889647713857E+08, 4.626733190862387E+06,
2460231.500000000, A.D. 2023-Oct-14 00:00:00.0000, 2.039259614911317E+08, -4.092487439347810E+08, 2.550972562967062E+06,
2460238.500000000, A.D. 2023-Oct-21 00:00:00.0000, 2.123848065280541E+08, -4.034007396688578E+08, 4.739186980936825E+05,
2460245.500000000, A.D. 2023-Oct-28 00:00:00.0000, 2.207347916378852E+08, -3.973460910493022E+08, -1.603375774462193E+06,
2460252.500000000, A.D. 2023-Nov-04 00:00:00.0000, 2.289706303966785E+08, -3.910860816062379E+08, -3.679839211356372E+06,
2460259.500000000, A.D. 2023-Nov-11 00:00:00.0000, 2.370870112874428E+08, -3.846221428639615E+08, -5.754381262486070E+06,
2460266.500000000, A.D. 2023-Nov-18 00:00:00.0000, 2.450786016294448E+08, -3.779558579489039E+08, -7.825893227468252E+06,
2460273.500000000, A.D. 2023-Nov-25 00:00:00.0000, 2.529400517296852E+08, -3.710889652290778E+08, -9.893248468160823E+06,
2460280.500000000, A.D. 2023-Dec-02 00:00:00.0000, 2.606659992884935E+08, -3.640233619809140E+08, -1.195530288277496E+07,
2460287.500000000, A.D. 2023-Dec-09 00:00:00.0000, 2.682510741401927E+08, -3.567611081257861E+08, -1.401089545560378E+07,
2460294.500000000, A.D. 2023-Dec-16 00:00:00.0000, 2.756899036194291E+08, -3.493044300063225E+08, -1.605884890973054E+07,
2460301.500000000, A.D. 2023-Dec-23 00:00:00.0000, 2.829771189044317E+08, -3.416557234981054E+08, -1.809797044043408E+07,
2460308.500000000, A.D. 2023-Dec-30 00:00:00.0000, 2.901073609982340E+08, -3.338175553909050E+08, -2.012705232252209E+07,
2460315.500000000, A.D. 2024-Jan-06 00:00:00.0000, 2.970752845739971E+08, -3.257926653819095E+08, -2.214487242387071E+07,
2460322.500000000, A.D. 2024-Jan-13 00:00:00.0000, 3.038755628544185E+08, -3.175839704669705E+08, -2.415019506569305E+07,
2460329.500000000, A.D. 2024-Jan-20 00:00:00.0000, 3.105028947462835E+08, -3.091945686243046E+08, -2.614177209131968E+07,
2460336.500000000, A.D. 2024-Jan-27 00:00:00.0000, 3.169520121979876E+08, -3.006277411182998E+08, -2.811834390552765E+07,
2460343.500000000, A.D. 2024-Feb-03 00:00:00.0000, 3.232176873462965E+08, -2.918869543515143E+08, -3.007864052385136E+07,
2460350.500000000, A.D. 2024-Feb-10 00:00:00.0000, 3.292947397226876E+08, -2.829758615348800E+08, -3.202138268206367E+07,
2460357.500000000, A.D. 2024-Feb-17 00:00:00.0000, 3.351780436494502E+08, -2.738983041468686E+08, -3.394528301857360E+07,
2460364.500000000, A.D. 2024-Feb-24 00:00:00.0000, 3.408625358512918E+08, -2.646583131456025E+08, -3.584904733221442E+07,
2460371.500000000, A.D. 2024-Mar-02 00:00:00.0000, 3.463432232995318E+08, -2.552601099453097E+08, -3.773137592082943E+07,
2460378.500000000, A.D. 2024-Mar-09 00:00:00.0000, 3.516151914131520E+08, -2.457081071985983E+08, -3.959096501820156E+07,
2460385.500000000, A.D. 2024-Mar-16 00:00:00.0000, 3.566736129960511E+08, -2.360069091657870E+08, -4.142650834871143E+07,
2460392.500000000, A.D. 2024-Mar-23 00:00:00.0000, 3.615137577902537E+08, -2.261613105423923E+08, -4.323669869849621E+07,
2460399.500000000, A.D. 2024-Mar-30 00:00:00.0000, 3.661310003843167E+08, -2.161762937541802E+08, -4.502022929824533E+07,
2460406.500000000, A.D. 2024-Apr-06 00:00:00.0000, 3.705208267077789E+08, -2.060570280691476E+08, -4.677579531403007E+07,
2460413.500000000, A.D. 2024-Apr-13 00:00:00.0000, 3.746788426351700E+08, -1.958088696689835E+08, -4.850209570034477E+07,
2460420.500000000, A.D. 2024-Apr-20 00:00:00.0000, 3.786007837215576E+08, -1.854373599831808E+08, -5.019783510577225E+07,
2460427.500000000, A.D. 2024-Apr-27 00:00:00.0000, 3.822825245276333E+08, -1.749482228303517E+08, -5.186172573447974E+07,
2460434.500000000, A.D. 2024-May-04 00:00:00.0000, 3.857200875961732E+08, -1.643473610567003E+08, -5.349248922545217E+07,
2460441.500000000, A.D. 2024-May-11 00:00:00.0000, 3.889096522897908E+08, -1.536408527629755E+08, -5.508885857563727E+07,
2460448.500000000, A.D. 2024-May-18 00:00:00.0000, 3.918475635407445E+08, -1.428349470899829E+08, -5.664958010814331E+07,
2460455.500000000, A.D. 2024-May-25 00:00:00.0000, 3.945303405038406E+08, -1.319360595632140E+08, -5.817341548304855E+07,
2460462.500000000, A.D. 2024-Jun-01 00:00:00.0000, 3.969546851365192E+08, -1.209507670493554E+08, -5.965914375505728E+07,
2460469.500000000, A.D. 2024-Jun-08 00:00:00.0000, 3.991174909145259E+08, -1.098858023447517E+08, -6.110556349579650E+07,
2460476.500000000, A.D. 2024-Jun-15 00:00:00.0000, 4.010158520437621E+08, -9.874804784891084E+07, -6.251149496547844E+07,
2460483.500000000, A.D. 2024-Jun-22 00:00:00.0000, 4.026470721266584E+08, -8.754452714869878E+07, -6.387578213831944E+07,
2460490.500000000, A.D. 2024-Jun-29 00:00:00.0000, 4.040086701263387E+08, -7.628239634085491E+07, -6.519729452886013E+07,
2460497.500000000, A.D. 2024-Jul-06 00:00:00.0000, 4.050983862344507E+08, -6.496893757444428E+07, -6.647492925591588E+07,
2460504.500000000, A.D. 2024-Jul-13 00:00:00.0000, 4.059141895514110E+08, -5.361155200031199E+07, -6.770761328354286E+07,
2460511.500000000, A.D. 2024-Jul-20 00:00:00.0000, 4.064542855556072E+08, -4.221775099308379E+07, -6.889430555454376E+07,
2460518.500000000, A.D. 2024-Jul-27 00:00:00.0000, 4.067171226692495E+08, -3.079514662357253E+07, -7.003399902642609E+07,
2460525.500000000, A.D. 2024-Aug-03 00:00:00.0000, 4.067013981581256E+08, -1.935144177833968E+07, -7.112572265709774E+07,
2460532.500000000, A.D. 2024-Aug-10 00:00:00.0000, 4.064060634964900E+08, -7.894419955680177E+06, -7.216854334746577E+07,
2460539.500000000, A.D. 2024-Aug-17 00:00:00.0000, 4.058303292115690E+08, 3.568065255924843E+06, -7.316156783518043E+07,
2460546.500000000, A.D. 2024-Aug-24 00:00:00.0000, 4.049736692048704E+08, 1.502810096381668E+07, -7.410394453577390E+07,
2460553.500000000, A.D. 2024-Aug-31 00:00:00.0000, 4.038358246375961E+08, 2.647772592592838E+07, -7.499486533893323E+07,
2460560.500000000, A.D. 2024-Sep-07 00:00:00.0000, 4.024168077186431E+08, 3.790894176295184E+07, -7.583356737514047E+07,
2460567.500000000, A.D. 2024-Sep-14 00:00:00.0000, 4.007169054541971E+08, 4.931372538449691E+07, -7.661933467065385E+07,
2460574.500000000, A.D. 2024-Sep-21 00:00:00.0000, 3.987366813093916E+08, 6.068404300243779E+07, -7.735149946324676E+07,
2460581.500000000, A.D. 2024-Sep-28 00:00:00.0000, 3.964769742806929E+08, 7.201186245983151E+07, -7.802944339147158E+07,
2460588.500000000, A.D. 2024-Oct-05 00:00:00.0000, 3.939388990337920E+08, 8.328916382901588E+07, -7.865259888689286E+07,
2460595.500000000, A.D. 2024-Oct-12 00:00:00.0000, 3.911238467323623E+08, 9.450795121215734E+07, -7.922045048510842E+07,
2460602.500000000, A.D. 2024-Oct-19 00:00:00.0000, 3.880334847987326E+08, 1.056602654271007E+08, -7.973253591064940E+07,
2460609.500000000, A.D. 2024-Oct-26 00:00:00.0000, 3.846697555713221E+08, 1.167381967300711E+08, -8.018844699303830E+07,
2460616.500000000, A.D. 2024-Nov-02 00:00:00.0000, 3.810348741178651E+08, 1.277338973794072E+08, -8.058783044552948E+07,
2460623.500000000, A.D. 2024-Nov-09 00:00:00.0000, 3.771313253071701E+08, 1.386395940135149E+08, -8.093038851051371E+07,
2460630.500000000, A.D. 2024-Nov-16 00:00:00.0000, 3.729618601758561E+08, 1.494475997959123E+08, -8.121587947169226E+07,
2460637.500000000, A.D. 2024-Nov-23 00:00:00.0000, 3.685294916518154E+08, 1.601503262304754E+08, -8.144411804001674E+07,
2460644.500000000, A.D. 2024-Nov-30 00:00:00.0000, 3.638374898617024E+08, 1.707402945575724E+08, -8.161497563541405E+07,
2460651.500000000, A.D. 2024-Dec-07 00:00:00.0000, 3.588893774637301E+08, 1.812101471044838E+08, -8.172838056812540E+07,
2460658.500000000, A.D. 2024-Dec-14 00:00:00.0000, 3.536889243386968E+08, 1.915526597674871E+08, -8.178431795537978E+07,
2460665.500000000, A.D. 2024-Dec-21 00:00:00.0000, 3.482401393449253E+08, 2.017607543439202E+08, -8.178282926149768E+07,
2460672.500000000, A.D. 2024-Dec-28 00:00:00.0000, 3.425472611410590E+08, 2.118275077088386E+08, -8.172401188645424E+07,
2460679.500000000, A.D. 2025-Jan-04 00:00:00.0000, 3.366147507051572E+08, 2.217461601746034E+08, -8.160801884831373E+07,
2460686.500000000, A.D. 2025-Jan-11 00:00:00.0000, 3.304472837608235E+08, 2.315101246614347E+08, -8.143505825872432E+07,
2460693.500000000, A.D. 2025-Jan-18 00:00:00.0000, 3.240497422315024E+08, 2.411129957336649E+08, -8.120539258666033E+07,
2460700.500000000, A.D. 2025-Jan-25 00:00:00.0000, 3.174272050089219E+08, 2.505485580028073E+08, -8.091933777718118E+07,
2460707.500000000, A.D. 2025-Feb-01 00:00:00.0000, 3.105849382692229E+08, 2.598107938445902E+08, -8.057726225103265E+07,
2460714.500000000, A.D. 2025-Feb-08 00:00:00.0000, 3.035283854392529E+08, 2.688938904294019E+08, -8.017958579476312E+07,
$$EOE